#dP2021  4 23  0  0  0.00000000      97 __u+U IGS14 FIT  IAC
## 2154 432000.00000000   900.00000000 59327 0.0000000000000
+  121   C02C03C04C05C06C07C08C09C10C11C12C13C14C16C19C20C21
+        C22C23C24C25C26C27C28C29C30C32C33C34C35C36C37C38C39
+        C40C41C42C43C44C45C46C60E01E02E03E04E05E07E08E09E11
+        E12E13E14E15E18E19E21E24E25E26E27E30E31E33E36G01G02
+        G03G04G05G06G08G09G10G12G13G14G15G16G17G18G19G20G21
+        G22G23G24G25G26G27G28G29G30G31G32J01J02J03J07R01R02
+        R03R04R05R07R08R09R11R12R13R14R15R16R17R18R19R20R21
+        R22R24  0  0  0  0  0  0  0  0  0  0  0  0  0  0  0
++         0  0  0  0  0  0  0  0  0  0  0  0  0  0  0  0  0
++         0  0  0  0  0  0  0  0  0  0  0  0  0  0  0  0  0
++         0  0  0  0  0  0  0  0  0  0  0  0  0  0  0  0  0
++         0  0  0  0  0  0  0  0  0  0  0  0  0  0  0  0  0
++         0  0  0  0  0  0  0  0  0  0  0  0  0  0  0  0  0
++         0  0  0  0  0  0  0  0  0  0  0  0  0  0  0  0  0
++         0  0  0  0  0  0  0  0  0  0  0  0  0  0  0  0  0
++         0  0  0  0  0  0  0  0  0  0  0  0  0  0  0  0  0
%c M  cc GPS ccc cccc cccc cccc cccc ccccc ccccc ccccc ccccc
%c cc cc ccc ccc cccc cccc cccc cccc ccccc ccccc ccccc ccccc
%f  1.2500000  1.025000000  0.00000000000  0.000000000000000
%f  0.0000000  0.000000000  0.00000000000  0.000000000000000
%i    0    0    0    0      0      0      0      0         0
%i    0    0    0    0      0      0      0      0         0
/* INFORMATION & ANALYSIS CENTER (IAC)            FINAL DATA
/* S/V CLOCKS ARE ALIGNED TO GNSS TIME                      
/* G:C1WC2W R:C1PC2P E:C1XC5X C:C2IC6I J:C1CC2S             
/* PCV:IGS14_2148 OL/AL:FES2004  NONE     YN ORB:CoN CLK:CoN
*  2021 04 23 21  0  0.00000000
PC02   4473.424928  41946.559259    328.737623    734.976226
PC03 -14786.737237  39523.945796   -607.884651   -373.289998
PC04 -39608.324275  14459.216929   -523.450111   -136.735738
PC05  21927.375242  36053.662857    370.027557     91.598261
PC06 -16147.122023  20873.386715  33261.237611    309.660922
PC07 -23035.230833  35386.189466  -4106.279829   -150.983092
PC08  -6102.068304  31451.726063 -27102.766421   -891.091264
PC09    806.789643  25394.282665  33999.923032    574.167720
PC10 -10974.029464  37156.636135 -16964.619393    -52.272085
PC11  -7814.698913 -17266.729963  20552.795505   -792.067833
PC12  12156.892745 -11314.413594  22454.696362    914.273669
PC13   3240.471245  38750.373820 -15883.744813    233.510502
PC14   2703.106978 -20078.754908 -19133.496274    546.375775
PC16 -12299.038235  21670.071027  34107.310539   -799.384582
PC19   6889.380463  14818.542835  22655.187559    809.557172
PC20 -10459.380247  21900.486445  13826.219756   -949.075811
PC21  22439.554260 -16137.087972   3772.526434   -948.925397
PC22  20771.929781  -1030.538091  18600.755239   -963.843466
PC23 -16620.769053  -8983.901624  20539.077783   -892.892140
PC24   2530.027728 -25890.006886 -10143.663280   -824.136876
PC25 -11053.169200 -24344.739980   8024.525496   -927.830891
PC26  12666.654367 -13041.944023 -21188.021596    916.817250
PC27 -20656.134846   5642.079330 -17903.783837    520.331233
PC28 -26651.559582  -7927.837049  -2374.862253    -82.694930
PC29  17592.071976  16137.714636 -14466.238989    382.885993
PC30  -2573.228940  15790.828199 -22872.225974    462.568502
PC32 -22310.640390  16354.788449  -3710.649538   -943.724074
PC33  -6936.740346 -14812.582023 -22595.064324   -941.983388
PC34   1860.883876 -16016.432531  22763.493016   -689.134058
PC35  26899.351081   7223.044515   2039.179975   -313.129889
PC36  10276.204031  24774.179748  -7684.817140   -729.674932
PC37 -13358.588577  11779.874100  21493.740267   -903.721407
PC38  -4198.031749  34916.378044 -23166.365541    144.219595
PC39  -7560.472426  23142.252549  34420.351486     30.570122
PC40 -18112.869269  34236.059144 -16797.066442    154.110669
PC41 -20662.278057    869.552705 -18681.389469   -947.104533
PC42  11078.064841 -21932.639186 -13161.896608   -921.068782
PC43 -17038.328668 -16405.543474  14778.956554   -699.000636
PC44  20688.475928  -6245.315588  17667.228327    152.855493
PC45  16537.287441   8841.264181 -20658.324215    421.766279
PC46  -1780.060945  26216.496994   9348.666131    302.599555
PC60   7278.603268  41506.319604  -1836.574176 999999.999999
PE01  17529.451031 -14598.544896 -18867.701927  -1093.249118
PE02 -17504.559937  14703.454685  18789.411481    214.285549
PE03 -27498.531948  10025.385172   4474.157324   -423.401082
PE04  13095.110459 -17661.682632 -19806.675914   -756.374955
PE05 -25969.044633  -3625.786512 -13730.313912   -286.450066
PE07   9308.356059  15029.682596  23750.951382   -529.305423
PE08 -12711.496466  17666.666075  20075.404726   6013.026215
PE09  -9559.025976 -14759.327828 -23804.017987   5690.954098
PE11 -15445.720844 -23770.595324   8471.123827   6061.793587
PE12   2309.820380 -18867.927908  22683.444090   5244.921279
PE13  15252.011976  23766.954768  -8887.897271    415.438417
PE14  20026.643359  13848.635061 -16380.943390  -1407.224154
PE15  -2132.807899  18865.852610 -22706.031150    817.916665
PE18 -28185.573225  -2579.706257   1950.540454  -1539.740897
PE19  28225.619513  -8607.705563  -2324.663565    259.690956
PE21  15340.789392   6382.944016 -24500.978590   -661.008482
PE24  -3562.952652 -24961.028736  15508.832806   -863.096793
PE25 -15264.551652  -6608.452438  24486.022506   -531.796919
PE26  23662.974853  14137.663257  10797.805734   1890.266862
PE27   4207.964512  24459.540186 -16124.099119    -17.571601
PE30  -9992.824543  27737.752229   2531.555761   3001.028153
PE31   9322.282928 -28046.188054  -1669.436703   -480.458710
PE33  18248.005377  -2855.071914  23139.204286   -467.854788
PE36 -23620.403892 -14661.767771 -10138.323862   -197.733110
PG01  18582.622179   8643.957471  16832.531579    708.318944
PG02 -13162.616400 -22733.448619   4381.881107   -598.303901
PG03  16976.051868  -2628.530432  20143.916005   -145.069678
PG04  26428.989870   1502.323682   2535.267194   -193.272084
PG05  -9450.232135 -14024.636841 -20591.018626    -39.936840
PG06  -3287.627865 -22403.053906  13896.058541      9.591270
PG08  23432.154897   6278.257594 -11171.828595    -18.605752
PG09  24355.980708  -7131.436709  -7939.618331   -340.990905
PG10 -11353.385790  23824.083776   1233.298143   -108.046004
PG12 -15942.057357  -1230.151946  20927.145270    -31.787910
PG13 -16119.079905 -13024.677654 -16819.972656    123.548879
PG14  12996.419431 -23144.104240    478.287945     93.598935
PG15 -24109.485674  -4462.963261 -11000.645570   -154.135895
PG16   4848.359019  17247.822521 -19694.570965   -314.336064
PG17  11757.428166 -13282.086325  20194.436207    431.246192
PG18 -11364.232573  10143.878041 -21761.231806    351.490973
PG19   2383.865054 -14497.023946  21837.218901     -9.032319
PG20 -17009.272151   4750.344438 -19752.040832    522.875446
PG21  20309.267392  13862.584981  11345.353418    113.187785
PG22  13999.640651   7663.581151  21432.729975   -630.955971
PG23 -16455.744886  18461.160373  -9645.898309    111.722566
PG24 -20246.085553 -12288.965399  12163.190287     30.582514
PG25 -17952.696782  12552.761379  14558.938275    124.241419
PG26   -913.055705  23348.258529 -12433.875032     76.178176
PG27  13915.447223  12406.026067 -19234.071112   -118.027145
PG28  11175.545183 -23773.182548   5149.144843    582.172520
PG29 -24715.558630   4936.504926  -8498.409195   -335.188708
PG30   4653.617642 -18448.472509 -18383.805108   -416.894466
PG31   4889.243986  23327.435699  11137.135545   -113.320406
PG32  -8869.944249  14756.244246  20288.360240     22.008989
PJ01 -30775.510201  28470.642031   9711.968406   -369.356595
PJ02 -28600.403519  26993.417906  19956.412519      6.234879
PJ03 -29117.044006  15707.098463 -21533.131196     -3.969694
PJ07 -25361.986190  33683.483183     53.246657     -0.015217
PR01  -4588.081410 -10166.304364 -22932.518227     78.352673
PR02 -20460.179775   3844.553811 -14652.303428    475.955026
PR03 -21403.128480  13684.664144   2039.634506     34.726864
PR04 -10389.055238  15526.477803  17398.899891     83.725675
PR05   6438.812031   8780.543420  23084.058096     70.497994
PR07  21280.941328 -13863.841020  -2550.825635    -42.524997
PR08  10353.299415 -15587.123295 -17284.386470    -58.673346
PR09  11163.832259   4481.697862 -22486.555968    -10.579907
PR11   1687.679929 -24975.971012  -4863.414385     -0.303563
PR12  -6416.480690 -21052.087528  12937.077628    223.282655
PR13 -10856.912956  -5091.357348  22494.466974    -53.824238
PR14  -8947.673461  14577.404827  18937.380795     63.483916
PR15  -1884.151009  25051.741005   4435.118276    104.197854
PR16   7388.353781  20123.945721 -13746.788041    -14.180137
PR17 -14835.767571   2286.503177 -20627.007840    418.375237
PR18    902.584784  12149.271553 -22408.282144     74.175124
PR19  15062.742246  15999.079955 -12958.923846   -140.970879
PR20  22378.983435  10278.220069   6749.625564    -47.861259
PR21  13836.068573  -3019.240891  21208.388374   -203.901476
PR22  -1793.390758 -12501.550366  22126.211319   -109.283047
PR24 -22534.239289  -9418.978392  -7357.170999     40.005987
EOF
